IRIDIUM 166             
1 43570U 18061B   23278.81471444  .00000181  00000+0  57403-4 0  9992
2 43570  86.3917 108.5797 0001868  87.7661 272.3748 14.34217617272167
IRIDIUM 158             
1 43571U 18061C   23278.92253354  .00000191  00000+0  61038-4 0  9993
2 43571  86.3918 108.5436 0001956  97.8415 262.3003 14.34218209272145
IRIDIUM 165             
1 43572U 18061D   23278.80837244  .00000186  00000+0  59471-4 0  9999
2 43572  86.3919 108.6191 0001959  98.8800 261.2617 14.34217032272151
IRIDIUM 155             
1 43573U 18061E   23279.04939027  .00000202  00000+0  64898-4 0  9997
2 43573  86.3916 108.4358 0002097  80.8703 279.2730 14.34217763272166
IRIDIUM 154             
1 43574U 18061F   23278.89082069  .00000186  00000+0  59211-4 0  9999
2 43574  86.3920 108.5876 0002342  91.2029 268.9435 14.34217433272181
IRIDIUM 163             
1 43575U 18061G   23278.80201021  .00000185  00000+0  59145-4 0  9997
2 43575  86.3912 108.5704 0002157  89.4742 270.6701 14.34216235272149
IRIDIUM 156             
1 43576U 18061H   23279.05573098  .00000187  00000+0  59683-4 0  9991
2 43576  86.3918 108.4706 0001866  87.4358 272.7051 14.34218098272166
IRIDIUM 164             
1 43577U 18061J   23278.89716718  .00000193  00000+0  61967-4 0  9996
2 43577  86.3917 108.5620 0001997  92.7001 267.4423 14.34217180272199
